[{"OBJECT_NAME":"CELESTIS-17 & SHERPA-FX1","OBJECT_ID":"2021-006CB","EPOCH":"2026-03-09T15:26:05.078112","MEAN_MOTION":15.30994801,"ECCENTRICITY":0.000663,"INCLINATION":97.2397,"RA_OF_ASC_NODE":112.1052,"ARG_OF_PERICENTER":178.1385,"MEAN_ANOMALY":181.9882,"EPHEMERIS_TYPE":0,"CLASSIFICATION_TYPE":"U","NORAD_CAT_ID":47486,"ELEMENT_SET_NO":999,"REV_AT_EPOCH":28406,"BSTAR":0.00024301,"MEAN_MOTION_DOT":7.207e-5,"MEAN_MOTION_DDOT":0},{"OBJECT_NAME":"STARLINK-34440","OBJECT_ID":"2025-137W","EPOCH":"2026-03-09T22:48:13.852512","MEAN_MOTION":15.30201069,"ECCENTRICITY":0.00010555,"INCLINATION":53.1582,"RA_OF_ASC_NODE":334.1038,"ARG_OF_PERICENTER":105.8215,"MEAN_ANOMALY":254.2902,"EPHEMERIS_TYPE":0,"CLASSIFICATION_TYPE":"U","NORAD_CAT_ID":64614,"ELEMENT_SET_NO":999,"REV_AT_EPOCH":4077,"BSTAR":0.00064388487,"MEAN_MOTION_DOT":0.0001876,"MEAN_MOTION_DDOT":0}]
